{
  "norad_id": 63296,
  "name": "2025-055F",
  "history": [
    {
      "epoch": "2026-03-28T22:14:00.878784Z",
      "apogee_km": 528.7628780303903,
      "perigee_km": 511.70555146253446,
      "latitude_deg": -3.787140063623192e-05,
      "longitude_deg": 67.2778069357425,
      "height_km": 517.73952521937,
      "semi_major_axis_km": 6898.371214746462,
      "eccentricity": 0.00123633,
      "inclination_deg": 97.64,
      "raan_deg": 227.1213,
      "arg_perigee_deg": 49.3967,
      "mean_anomaly_deg": 310.8338,
      "mean_motion_rev_day": 15.15245213
    },
    {
      "epoch": "2026-03-29T04:34:23.416320Z",
      "apogee_km": 528.7484161321854,
      "perigee_km": 511.6750030759149,
      "latitude_deg": 3.439741947778513e-05,
      "longitude_deg": -27.810866901233595,
      "height_km": 517.6239517188785,
      "semi_major_axis_km": 6898.34870960405,
      "eccentricity": 0.0012375,
      "inclination_deg": 97.6401,
      "raan_deg": 227.3869,
      "arg_perigee_deg": 48.6134,
      "mean_anomaly_deg": 311.616,
      "mean_motion_rev_day": 15.15252628
    }
  ]
}